QIANFAN-81              
1 63167U 25046J   25308.12410874  .00000125  00000+0  17552-3 0  9995
2 63167  88.9763 323.8728 0013244 227.2923 132.7114 13.50991925 42278
QIANFAN-82              
1 63168U 25046K   25308.08346141  .00000091  00000+0  12311-3 0  9996
2 63168  88.9763 323.9207 0011221 235.5735 124.4356 13.50973053 42254
QIANFAN-83              
1 63169U 25046L   25308.12856117  .00000079  00000+0  87131-4 0  9990
2 63169  88.9763 323.7682 0012754 221.6460 138.3727 13.61967127 42346
QIANFAN-84              
1 63170U 25046M   25308.11157956 -.00000033  00000+0 -69622-4 0  9993
2 63170  88.9760 324.0505 0014299 232.6698 127.3151 13.50986980 42181
QIANFAN-85              
1 63171U 25046N   25308.10810701  .00000117  00000+0  16220-3 0  9993
2 63171  88.9762 323.9229 0011591 234.3840 125.6232 13.50976967 42258
QIANFAN-86              
1 63172U 25046P   25308.11639281  .00000110  00000+0  15171-3 0  9994
2 63172  88.9764 323.7833 0009398 238.2888 121.7348 13.50974308 42338
QIANFAN-87              
1 63173U 25046Q   25308.08759377  .00000042  00000+0  46735-4 0  9995
2 63173  88.9761 323.8994 0010137 233.0825 126.9398 13.50969803 42260
QIANFAN-88              
1 63174U 25046R   25308.10405990  .00000092  00000+0  12358-3 0  9996
2 63174  88.9763 323.8513 0010398 242.4629 117.5466 13.50972306 42292
